SHIJIAN-20 (SJ-20)      
1 44910U 19097A   26201.84103699  .00000132  00000+0  00000+0 0  9999
2 44910   5.0023  74.6500 0015580  57.9055 153.5938  1.00272475 24033
TJS-5                   
1 44978U 20002A   26201.63128227 -.00000343  00000+0  00000+0 0  9997
2 44978   0.0784  79.4557 0008137 337.0777 216.6301  1.00271413 24041
GSAT-30                 
1 45026U 20005A   26202.63279127 -.00000163  00000+0  00000+0 0  9992
2 45026   0.0377 244.9762 0003352 206.6150 158.6141  1.00272862 23855
EUTELSAT KONNECT        
1 45027U 20005B   26202.26133397  .00000051  00000+0  00000+0 0  9995
2 45027   0.0663  95.5655 0001970 127.0029 177.7386  1.00275751 24674
JCSAT-17                
1 45245U 20013A   26202.28681407 -.00000314  00000+0  00000+0 0  9991
2 45245   5.3922 357.1926 0003277 131.1172  50.0099  1.00272782 23570
GEO-KOMPSAT-2B          
1 45246U 20013B   26202.64172706 -.00000342  00000+0  00000+0 0  9990
2 45246   0.0438 230.3244 0000413 312.9533 115.3994  1.00272087 23622
BEIDOU-3 G2             
1 45344U 20017A   26202.64452186 -.00000140  00000+0  00000+0 0  9992
2 45344   2.9329  47.8340 0001994  57.2509 146.3712  1.00272603 23600
AEHF-6 (USA 298)        
1 45465U 20022B   26202.64354707 -.00000294  00000+0  00000+0 0  9992
2 45465   2.4743 301.6103 0041748  15.5040 351.6987  1.00269561 23362
BEIDOU-3 G3             
1 45807U 20040A   26202.63817372 -.00000354  00000+0  00000+0 0  9990
2 45807   2.5301  67.5062 0002299 314.0816 258.0922  1.00273705 22410
APSTAR-6D               
1 45863U 20045A   26202.46780806 -.00000316  00000+0  00000+0 0  9997
2 45863   0.0379  87.2775 0002477  13.4339 140.9555  1.00269536 22203
KOREASAT 116            
1 45920U 20048A   26202.63930039 -.00000360  00000+0  00000+0 0  9997
2 45920   0.0186  26.4411 0001053  93.1752 166.1131  1.00273657 21981
EXPRESS 103             
1 45985U 20053A   26202.63539128 -.00000279  00000+0  00000+0 0  9997
2 45985   0.0401 262.0705 0000432 123.2056 239.3491  1.00272345 21994
EXPRESS 80              
1 45986U 20053B   26201.94810873  .00000000  00000+0  00000+0 0  9991
2 45986   0.0131 357.6184 0001009 278.6600  83.7101  1.00269147 21971
BSAT-4B                 
1 46112U 20056A   26202.63588809 -.00000348  00000+0  00000+0 0  9990
2 46112   0.0438 217.0670 0004482 272.1683 148.8997  1.00273162 21732
MEV-2                   
1 46113U 20056B   26202.61601535 -.00000009  00000+0  00000+0 0  9995
2 46113   0.0567 255.3582 0000157 276.7138 348.0632  1.00272371 81055
GALAXY 30 (G-30)        
1 46114U 20056C   26202.59157523  .00000039  00000+0  00000+0 0  9998
2 46114   0.0168  64.3610 0002195  52.3892 270.5573  1.00270965 21630
GAOFEN-13 01            
1 46610U 20071A   26202.49722279 -.00000361  00000+0  00000+0 0  9990
2 46610   0.4844  86.0721 0044426 119.8716  30.5459  1.00275257 21262
TIANTONG-1 2            
1 46916U 20082A   26201.50046972 -.00000356  00000+0  00000+0 0  9995
2 46916   0.7518 332.5690 0001337 135.7755 135.0399  1.00271587 20984
LUCAS (JDRS-1)          
1 47202U 20089A   26202.66580181 -.00000234  00000+0  00000+0 0  9999
2 47202   0.0598 268.2351 0002026 189.7769 171.8918  1.00272849 20766
SXM-7                   
1 47240U 20096A   26202.24304721 -.00000204  00000+0  00000+0 0  9994
2 47240   0.0221 102.3072 0003716  11.6608 187.3788  1.00272034  7781
CMS-01                  
1 47256U 20099A   26202.63279127 -.00000163  00000+0  00000+0 0  9992
2 47256   0.0170  72.3749 0003397 196.0270 341.7930  1.00272849 20544
TURKSAT 5A              
1 47306U 21001A   26202.62242870  .00000156  00000+0  00000+0 0  9997
2 47306   0.0177  77.7393 0000122   7.5326 109.0896  1.00271851 20315
TIANTONG-1 3            
1 47321U 21003A   26202.63244461 -.00000151  00000+0  00000+0 0  9991
2 47321   1.7306 341.4814 0003254 142.7097 124.3725  1.00270043 20301
TJS-6                   
1 47613U 21010A   26202.58039517  .00000045  00000+0  00000+0 0  9992
2 47613   0.1625 261.1251 0003218 237.6874 187.9828  1.00274908 20158
SBIRS GEO-5 (USA 315)   
1 48618U 21042A   26202.65255569 -.00000263  00000+0  00000+0 0  9991
2 48618   5.0606 329.3854 0001736 151.2720 147.4706  1.00271675 19115
FENGYUN 4B              
1 48808U 21047A   26202.69636157 -.00000329  00000+0  00000+0 0  9990
2 48808   0.2364  80.3138 0006854 274.4446 300.0164  1.00276971 18918
SXM-8                   
1 48838U 21049A   26202.59946193 -.00000203  00000+0  00000+0 0  9999
2 48838   0.0152  47.9763 0005917 346.5067  35.5324  1.00271554 18927
TIANLIAN 1-05           
1 49011U 21063A   26202.61965536  .00000108  00000+0  00000+0 0  9997
2 49011   1.6803  80.4148 0001269  84.9922  13.8683  1.00269903 18426
STAR ONE D2             
1 49055U 21069A   26202.53119439  .00000000  00000+0  00000+0 0  9996
2 49055   0.0092  39.3195 0002529 102.4595 278.6760  1.00269307 18283
EUTELSAT QUANTUM        
1 49056U 21069B   26201.84164367  .00000126  00000+0  00000+0 0  9999
2 49056   0.0124  44.5070 0002250  66.9717 177.8240  1.00274456 18263
ZHONGXING-2E            
1 49062U 21071A   26202.63547795 -.00000290  00000+0  00000+0 0  9990
2 49062   0.0426 230.1022 0001274 269.1437 126.9947  1.00271880 18386
TJS-7                   
1 49115U 21077A   26202.59660192 -.00000122  00000+0  00000+0 0  9991
2 49115   0.2675 263.6546 0003023 117.5592  33.4163  1.00273252  9890
