OBJECT_NAME,OBJECT_ID,EPOCH,MEAN_MOTION,ECCENTRICITY,INCLINATION,RA_OF_ASC_NODE,ARG_OF_PERICENTER,MEAN_ANOMALY,EPHEMERIS_TYPE,CLASSIFICATION_TYPE,NORAD_CAT_ID,ELEMENT_SET_NO,REV_AT_EPOCH,BSTAR,MEAN_MOTION_DOT,MEAN_MOTION_DDOT
SHIJIAN-20 (SJ-20),2019-097A,2026-07-20T20:11:05.595936,1.00272475,.001558,5.0023,74.6500,57.9055,153.5938,0,U,44910,999,2403,0,.132E-5,0
TJS-5,2020-002A,2026-07-20T15:09:02.788128,1.00271413,.0008137,0.0784,79.4557,337.0777,216.6301,0,U,44978,999,2404,0,-.343E-5,0
GSAT-30,2020-005A,2026-07-21T15:11:13.165728,1.00272862,.00033525,0.0377,244.9762,206.6150,158.6141,0,U,45026,999,2385,0,-.163E-5,0
EUTELSAT KONNECT,2020-005B,2026-07-21T06:16:19.255008,1.00275751,.00019708,0.0663,95.5655,127.0029,177.7386,0,U,45027,999,2467,0,.51E-6,0
JCSAT-17,2020-013A,2026-07-21T06:53:00.735648,1.00272782,.00032779,5.3922,357.1926,131.1172,50.0099,0,U,45245,999,2357,0,-.314E-5,0
GEO-KOMPSAT-2B,2020-013B,2026-07-21T15:24:05.217984,1.00272087,.00004131,0.0438,230.3244,312.9533,115.3994,0,U,45246,999,2362,0,-.342E-5,0
BEIDOU-3 G2,2020-017A,2026-07-21T15:28:06.688704,1.00272603,.00019944,2.9329,47.8340,57.2509,146.3712,0,U,45344,999,2360,0,-.14E-5,0
AEHF-6 (USA 298),2020-022B,2026-07-21T15:26:42.466848,1.00269561,.00417489,2.4743,301.6103,15.5040,351.6987,0,U,45465,999,2336,0,-.294E-5,0
BEIDOU-3 G3,2020-040A,2026-07-21T15:18:58.209408,1.00273705,.00022992,2.5301,67.5062,314.0816,258.0922,0,U,45807,999,2241,0,-.354E-5,0
APSTAR-6D,2020-045A,2026-07-21T11:13:38.616384,1.00269536,.00024776,0.0379,87.2775,13.4339,140.9555,0,U,45863,999,2220,0,-.316E-5,0
KOREASAT 116,2020-048A,2026-07-21T15:20:35.553696,1.00273657,.0001053,0.0186,26.4411,93.1752,166.1131,0,U,45920,999,2198,0,-.36E-5,0
EXPRESS 103,2020-053A,2026-07-21T15:14:57.806592,1.00272345,.00004328,0.0401,262.0705,123.2056,239.3491,0,U,45985,999,2199,0,-.279E-5,0
EXPRESS 80,2020-053B,2026-07-20T22:45:16.594272,1.00269147,.0001009,0.0131,357.6184,278.6600,83.7101,0,U,45986,999,2197,0,0,0
BSAT-4B,2020-056A,2026-07-21T15:15:40.730976,1.00273162,.00044826,0.0438,217.0670,272.1683,148.8997,0,U,46112,999,2173,0,-.348E-5,0
MEV-2,2020-056B,2026-07-21T14:47:03.726240,1.00272371,.00001578,0.0567,255.3582,276.7138,348.0632,0,U,46113,999,8105,0,-.9E-7,0
GALAXY 30 (G-30),2020-056C,2026-07-21T14:11:52.099872,1.00270965,.00021953,0.0168,64.3610,52.3892,270.5573,0,U,46114,999,2163,0,.39E-6,0
GAOFEN-13 01,2020-071A,2026-07-21T11:56:00.049056,1.00275257,.00444264,0.4844,86.0721,119.8716,30.5459,0,U,46610,999,2126,0,-.361E-5,0
TIANTONG-1 2,2020-082A,2026-07-20T12:00:40.583808,1.00271587,.00013376,0.7518,332.5690,135.7755,135.0399,0,U,46916,999,2098,0,-.356E-5,0
LUCAS (JDRS-1),2020-089A,2026-07-21T15:58:45.276384,1.00272849,.00020269,0.0598,268.2351,189.7769,171.8918,0,U,47202,999,2076,0,-.234E-5,0
SXM-7,2020-096A,2026-07-21T05:49:59.278944,1.00272034,.00037162,0.0221,102.3072,11.6608,187.3788,0,U,47240,999,778,0,-.204E-5,0
CMS-01,2020-099A,2026-07-21T15:11:13.165728,1.00272849,.00033973,0.0170,72.3749,196.0270,341.7930,0,U,47256,999,2054,0,-.163E-5,0
TURKSAT 5A,2021-001A,2026-07-21T14:56:17.839680,1.00271851,.00001226,0.0177,77.7393,7.5326,109.0896,0,U,47306,999,2031,0,.156E-5,0
TIANTONG-1 3,2021-003A,2026-07-21T15:10:43.214304,1.00270043,.00032547,1.7306,341.4814,142.7097,124.3725,0,U,47321,999,2030,0,-.151E-5,0
TJS-6,2021-010A,2026-07-21T13:55:46.142688,1.00274908,.00032183,0.1625,261.1251,237.6874,187.9828,0,U,47613,999,2015,0,.45E-6,0
SBIRS GEO-5 (USA 315),2021-042A,2026-07-21T15:39:40.811616,1.00271675,.00017365,5.0606,329.3854,151.2720,147.4706,0,U,48618,999,1911,0,-.263E-5,0
FENGYUN 4B,2021-047A,2026-07-21T16:42:45.639648,1.00276971,.0006854,0.2364,80.3138,274.4446,300.0164,0,U,48808,999,1891,0,-.329E-5,0
SXM-8,2021-049A,2026-07-21T14:23:13.510752,1.00271554,.00059172,0.0152,47.9763,346.5067,35.5324,0,U,48838,999,1892,0,-.203E-5,0
TIANLIAN 1-05,2021-063A,2026-07-21T14:52:18.223104,1.00269903,.0001269,1.6803,80.4148,84.9922,13.8683,0,U,49011,999,1842,0,.108E-5,0
STAR ONE D2,2021-069A,2026-07-21T12:44:55.195296,1.00269307,.00025291,0.0092,39.3195,102.4595,278.6760,0,U,49055,999,1828,0,0,0
EUTELSAT QUANTUM,2021-069B,2026-07-20T20:11:58.013088,1.00274456,.00022505,0.0124,44.5070,66.9717,177.8240,0,U,49056,999,1826,0,.126E-5,0
ZHONGXING-2E,2021-071A,2026-07-21T15:15:05.294880,1.00271880,.00012742,0.0426,230.1022,269.1437,126.9947,0,U,49062,999,1838,0,-.29E-5,0
TJS-7,2021-077A,2026-07-21T14:19:06.405888,1.00273252,.00030231,0.2675,263.6546,117.5592,33.4163,0,U,49115,999,989,0,-.122E-5,0
